[{"OBJECT_NAME":"YUNHAI-1 03","OBJECT_ID":"2022-115A","EPOCH":"2026-03-09T22:42:18.502272","MEAN_MOTION":14.32645592,"ECCENTRICITY":0.00045037,"INCLINATION":98.5539,"RA_OF_ASC_NODE":68.3628,"ARG_OF_PERICENTER":355.0463,"MEAN_ANOMALY":5.0676,"EPHEMERIS_TYPE":0,"CLASSIFICATION_TYPE":"U","NORAD_CAT_ID":53877,"ELEMENT_SET_NO":999,"REV_AT_EPOCH":18130,"BSTAR":0.00016609215,"MEAN_MOTION_DOT":4.08e-6,"MEAN_MOTION_DDOT":0},{"OBJECT_NAME":"FENGYUN 1C DEB","OBJECT_ID":"1999-025NL","EPOCH":"2026-03-09T18:04:55.822368","MEAN_MOTION":14.37030172,"ECCENTRICITY":0.01148052,"INCLINATION":99.2731,"RA_OF_ASC_NODE":355.2688,"ARG_OF_PERICENTER":167.8685,"MEAN_ANOMALY":247.7788,"EPHEMERIS_TYPE":0,"CLASSIFICATION_TYPE":"U","NORAD_CAT_ID":30035,"ELEMENT_SET_NO":999,"REV_AT_EPOCH":374,"BSTAR":6.930269e-5,"MEAN_MOTION_DOT":1.68e-6,"MEAN_MOTION_DDOT":0}]
